NORAD_CAT_ID,OBJECT_NAME,OBJECT_TYPE,EPOCH,MEAN_MOTION,ECCENTRICITY,INCLINATION,RA_OF_ASC_NODE,ARG_OF_PERICENTER,MEAN_ANOMALY,BSTAR,MEAN_MOTION_DOT,MEAN_MOTION_DDOT,TLE_LINE0,TLE_LINE1,TLE_LINE2,SEMIMAJOR_AXIS,PERIOD,APOGEE,PERIGEE,DECAYED
55300.0,STARLINK-5308,PAYLOAD,2023-04-18 07:36:35,15.69921558,0.0003175,69.9975,179.2868,263.4937,96.5898,5.0656e-06,3.96e-06,0.0,0 STARLINK-5308,1 55300U 23010AH  23108.31707583  .00000396  00000-0  50656-5 0  9992,2 55300  69.9975 179.2868 0003175 263.4937  96.5898 15.69921558 14754,6737.258,91.724,361.262,356.984,0.0
55300.0,STARLINK-5308,PAYLOAD,2023-04-18 13:43:36,15.69918035,0.000358,69.9977,178.5716,268.5809,91.4977,5.0053e-06,3.89e-06,0.0,0 STARLINK-5308,1 55300U 23010AH  23108.57194555  .00000389  00000-0  50053-5 0  9992,2 55300  69.9977 178.5716 0003580 268.5809  91.4977 15.69918035 14796,6737.268,91.725,361.545,356.722,0.0
55300.0,STARLINK-5308,PAYLOAD,2023-04-19 05:01:06,15.69919754,0.0003286,69.9982,176.7802,256.2959,103.7871,2.4483e-05,2.732e-05,0.0,0 STARLINK-5308,1 55300U 23010AH  23109.20910616  .00002732  00000-0  24483-4 0  9998,2 55300  69.9982 176.7802 0003286 256.2959 103.7871 15.69919754 14587,6737.264,91.724,361.342,356.915,0.0
55300.0,STARLINK-5308,PAYLOAD,2023-04-19 08:04:36,15.69937527,0.0003415,69.9975,176.4219,262.7576,97.3231,-1.1511e-05,-1.597e-05,0.0,0 STARLINK-5308,1 55300U 23010AH  23109.33653857 -.00001597  00000-0 -11511-4 0  9991,2 55300  69.9975 176.4219 0003415 262.7576  97.3231 15.69937527 14912,6737.213,91.723,361.378,356.777,0.0
55300.0,STARLINK-5308,PAYLOAD,2023-04-19 14:11:39,15.69900926,0.0002429,69.998,175.7065,264.0611,96.0308,2.0043e-06,2.9e-07,0.0,0 STARLINK-5308,1 55300U 23010AH  23109.59142699  .00000029  00000-0  20043-5 0  9994,2 55300  69.9980 175.7065 0002429 264.0611  96.0308 15.69900926 14956,6737.317,91.726,360.819,357.546,0.0
55300.0,STARLINK-5308,PAYLOAD,2023-04-20 07:00:52,15.69938766,0.0002876,69.9988,173.7347,252.4857,107.6025,2.6748e-05,3.007e-05,0.0,0 STARLINK-5308,1 55300U 23010AH  23110.29227873  .00003007  00000-0  26748-4 0  9997,2 55300  69.9988 173.7347 0002876 252.4857 107.6025 15.69938766 15065,6737.209,91.723,361.012,357.137,0.0
55300.0,STARLINK-5308,PAYLOAD,2023-04-20 13:07:56,15.69895559,0.0003544,69.998,173.0187,266.0265,94.0525,-2.6837e-05,-3.435e-05,0.0,0 STARLINK-5308,1 55300U 23010AH  23110.54718569 -.00003435  00000-0 -26837-4 0  9998,2 55300  69.9980 173.0187 0003544 266.0265  94.0525 15.69895559 14794,6737.333,91.726,361.586,356.81,0.0
55300.0,STARLINK-5308,PAYLOAD,2023-04-21 02:53:40,15.69922674,0.0002977,69.9991,171.4073,262.9852,97.1005,1.0203e-05,1.014e-05,0.0,0 STARLINK-5308,1 55300U 23010AH  23111.12061238  .00001014  00000-0  10203-4 0  9996,2 55300  69.9991 171.4073 0002977 262.9852  97.1005 15.69922674 14884,6737.255,91.724,361.126,357.115,0.0
55300.0,STARLINK-5308,PAYLOAD,2023-04-21 10:32:26,15.69928633,0.0002537,70.0001,170.5131,263.8526,96.2381,1.7173e-05,1.853e-05,0.0,0 STARLINK-5308,1 55300U 23010AH  23111.43919099  .00001853  00000-0  17173-4 0  9991,2 55300  70.0001 170.5131 0002537 263.8526  96.2381 15.69928633 14938,6737.238,91.724,360.812,357.394,0.0
55300.0,STARLINK-5308,PAYLOAD,2023-04-21 13:35:56,15.6991947,0.0003309,69.9983,170.1552,269.5875,90.4942,2.4064e-05,2.681e-05,0.0,0 STARLINK-5308,1 55300U 23010AH  23111.56662799  .00002681  00000-0  24064-4 0  9994,2 55300  69.9983 170.1552 0003309 269.5875  90.4942 15.69919470 14955,6737.264,91.724,361.359,356.9,0.0
55300.0,STARLINK-5308,PAYLOAD,2023-04-22 14:03:58,15.69940236,0.0003811,69.9965,167.2861,277.2611,82.8151,-1.2443e-05,-1.71e-05,0.0,0 STARLINK-5308,1 55300U 23010AH  23112.58608801 -.00001710  00000-0 -12443-4 0  9993,2 55300  69.9965 167.2861 0003811 277.2611  82.8151 15.69940236 15117,6737.205,91.723,361.638,356.502,0.0
55300.0,STARLINK-5308,PAYLOAD,2023-04-23 13:00:16,15.69920317,0.000321,69.9978,164.6009,276.2996,83.7834,-8.5761e-06,-1.244e-05,0.0,0 STARLINK-5308,1 55300U 23010AH  23113.54185376 -.00001244  00000-0 -85761-5 0  9993,2 55300  69.9978 164.6009 0003210 276.2996  83.7834 15.69920317 15266,6737.262,91.724,361.29,356.964,0.0
55300.0,STARLINK-5308,PAYLOAD,2023-04-24 02:46:01,15.69934327,0.0003694,69.9967,162.9863,273.6569,86.4204,7.9991e-06,7.49e-06,0.0,0 STARLINK-5308,1 55300U 23010AH  23114.11528992  .00000749  00000-0  79991-5 0  9997,2 55300  69.9967 162.9863 0003694 273.6569  86.4204 15.69934327 15353,6737.222,91.724,361.576,356.598,0.0
55300.0,STARLINK-5308,PAYLOAD,2023-04-25 12:24:38,15.69887267,0.0003275,69.9975,159.0453,254.8292,105.2541,-3.8081e-05,-4.782e-05,0.0,0 STARLINK-5308,1 55300U 23010AH  23115.51710758 -.00004782  00000-0 -38081-4 0  9992,2 55300  69.9975 159.0453 0003275 254.8292 105.2541 15.69887267 15885,6737.357,91.726,361.428,357.015,0.0
55300.0,STARLINK-5308,PAYLOAD,2023-04-26 11:20:51,15.69935659,0.0003051,69.9986,156.359,246.8017,113.2857,4.6591e-05,5.396e-05,0.0,0 STARLINK-5308,1 55300U 23010AH  23116.47281374  .00005396  00000-0  46591-4 0  9990,2 55300  69.9986 156.3590 0003051 246.8017 113.2857 15.69935659 16033,6737.218,91.724,361.139,357.028,0.0
55300.0,STARLINK-5308,PAYLOAD,2023-04-27 04:10:07,15.6992103,0.0002917,69.9975,154.3866,219.9567,140.1414,5.895e-05,6.88e-05,0.0,0 STARLINK-5308,1 55300U 23010AH  23117.17369751  .00006880  00000-0  58950-4 0  9995,2 55300  69.9975 154.3866 0002917 219.9567 140.1414 15.69921030 15839,6737.26,91.724,361.09,357.16,0.0
55300.0,STARLINK-5308,PAYLOAD,2023-04-27 11:48:54,15.6991192,0.0003493,69.9971,153.4921,254.779,105.302,4.2691e-05,4.921e-05,0.0,0 STARLINK-5308,1 55300U 23010AH  23117.49229215  .00004921  00000-0  42691-4 0  9999,2 55300  69.9971 153.4921 0003493 254.7790 105.3020 15.69911920 16195,6737.286,91.725,361.504,356.798,0.0
55300.0,STARLINK-5308,PAYLOAD,2023-04-28 12:16:55,15.69936216,0.0003215,69.9969,150.6253,257.5578,102.5258,-2.2943e-05,-2.972e-05,0.0,0 STARLINK-5308,1 55300U 23010AH  23118.51175829 -.00002972  00000-0 -22943-4 0  9998,2 55300  69.9969 150.6253 0003215 257.5578 102.5258 15.69936216 16047,6737.216,91.723,361.247,356.915,0.0
55300.0,STARLINK-5308,PAYLOAD,2023-04-29 11:13:12,15.69926035,0.0003227,69.9968,147.938,262.2791,97.8038,2.6157e-06,1.02e-06,0.0,0 STARLINK-5308,1 55300U 23010AH  23119.46750333  .00000102  00000-0  26157-5 0  9995,2 55300  69.9968 147.9380 0003227 262.2791  97.8038 15.69926035 16500,6737.246,91.724,361.285,356.937,0.0
55300.0,STARLINK-5308,PAYLOAD,2023-04-30 11:41:14,15.69920376,0.0003043,69.9961,145.0705,257.8904,102.195,4.6274e-06,3.44e-06,0.0,0 STARLINK-5308,1 55300U 23010AH  23120.48697423  .00000344  00000-0  46274-5 0  9999,2 55300  69.9961 145.0705 0003043 257.8904 102.1950 15.69920376 16353,6737.262,91.724,361.177,357.077,0.0
55300.0,STARLINK-5308,PAYLOAD,2023-05-01 04:30:31,15.69879627,0.0002852,69.9964,143.0983,273.7524,86.3345,7.0952e-05,8.311e-05,0.0,0 STARLINK-5308,1 55300U 23010AH  23121.18786348  .00008311  00000-0  70952-4 0  9993,2 55300  69.9964 143.0983 0002852 273.7524  86.3345 15.69879627 16469,6737.378,91.727,361.165,357.322,0.0
55300.0,STARLINK-5308,PAYLOAD,2023-05-01 10:37:31,15.69922712,0.0002706,69.9967,142.3832,258.6424,101.4468,-1.0714e-06,-3.41e-06,0.0,0 STARLINK-5308,1 55300U 23010AH  23121.44272636 -.00000341  00000-0 -10714-5 0  9990,2 55300  69.9967 142.3832 0002706 258.6424 101.4468 15.69922712 16500,6737.255,91.724,360.943,357.297,0.0
55300.0,STARLINK-5308,PAYLOAD,2023-05-02 12:37:18,15.699227,0.0002774,69.9974,139.3375,266.973,93.1149,2.1129e-06,4.2e-07,0.0,0 STARLINK-5308,1 55300U 23010AH  23122.52591062  .00000042  00000-0  21129-5 0  9995,2 55300  69.9974 139.3375 0002774 266.9730  93.1149 15.69922700 16671,6737.255,91.724,360.989,357.251,0.0
55300.0,STARLINK-5308,PAYLOAD,2023-05-03 10:01:50,15.69909505,0.0002982,69.9977,136.832,270.976,89.1094,3.2713e-05,3.72e-05,0.0,0 STARLINK-5308,1 55300U 23010AH  23123.41794465  .00003720  00000-0  32713-4 0  9992,2 55300  69.9977 136.8320 0002982 270.9760  89.1094 15.69909505 17128,6737.293,91.725,361.167,357.149,0.0
55300.0,STARLINK-5308,PAYLOAD,2023-05-04 02:51:06,15.6992115,0.0003006,69.9978,134.8601,266.0534,94.0318,1.2072e-05,1.239e-05,0.0,0 STARLINK-5308,1 55300U 23010AH  23124.11882553  .00001239  00000-0  12072-4 0  9995,2 55300  69.9978 134.8601 0003006 266.0534  94.0318 15.69921150 16923,6737.26,91.724,361.15,357.099,0.0
55300.0,STARLINK-5308,PAYLOAD,2023-05-04 12:01:37,15.69921657,0.0002981,69.9978,133.786,263.0078,97.0779,6.169e-06,5.29e-06,0.0,0 STARLINK-5308,1 55300U 23010AH  23124.50112743  .00000529  00000-0  61690-5 0  9997,2 55300  69.9978 133.7860 0002981 263.0078  97.0779 15.69921657 17296,6737.258,91.724,361.132,357.115,0.0
55300.0,STARLINK-5308,PAYLOAD,2023-05-05 09:26:09,15.69913259,0.0003166,69.998,131.2782,269.0279,91.0554,1.9766e-05,2.164e-05,0.0,0 STARLINK-5308,1 55300U 23010AH  23125.39316403  .00002164  00000-0  19766-4 0  9997,2 55300  69.9980 131.2782 0003166 269.0279  91.0554 15.69913259 17126,6737.282,91.725,361.28,357.014,0.0
55300.0,STARLINK-5308,PAYLOAD,2023-05-05 12:29:39,15.69924716,0.0003062,69.9982,130.9202,265.9164,94.1682,4.125e-06,2.83e-06,0.0,0 STARLINK-5308,1 55300U 23010AH  23125.52059414  .00000283  00000-0  41250-5 0  9992,2 55300  69.9982 130.9202 0003062 265.9164  94.1682 15.69924716 17456,6737.249,91.724,361.177,357.051,0.0
55300.0,STARLINK-5308,PAYLOAD,2023-05-06 06:50:40,15.69927629,0.0003526,69.998,128.7707,266.8662,93.213,5.8349e-06,4.89e-06,0.0,0 STARLINK-5308,1 55300U 23010AH  23126.28519276  .00000489  00000-0  58349-5 0  9998,2 55300  69.9980 128.7707 0003526 266.8662  93.2130 15.69927629 17260,6737.241,91.724,361.482,356.731,0.0
55300.0,STARLINK-5308,PAYLOAD,2023-05-06 09:54:10,15.69928338,0.0003438,69.998,128.4124,266.5682,93.512,6.4862e-06,5.67e-06,0.0,0 STARLINK-5308,1 55300U 23010AH  23126.41262540  .00000567  00000-0  64862-5 0  9996,2 55300  69.9980 128.4124 0003438 266.5682  93.5120 15.69928338 17597,6737.239,91.724,361.42,356.788,0.0
